{"type": "FeatureCollection", "features": [ {"type": "Feature", "properties": {"norad_id": 66506, "name": "STARLINK-34765", "group": "last-30-days", "lat": 20.117941930071847, "lon": -18.011774999667153, "alt_km": 342.076954717184, "timestamp": "2025-12-02T13:52:16.065403+00:00", "meta": {"OBJECT_NAME": "STARLINK-34765", "OBJECT_ID": "2025-263X", "EPOCH": "2025-12-02T06:00:02.999808", "MEAN_MOTION": 15.7511199, "ECCENTRICITY": 0.00016503, "INCLINATION": 42.9985, "RA_OF_ASC_NODE": 187.1271, "ARG_OF_PERICENTER": 274.0228, "MEAN_ANOMALY": 173.9134, "EPHEMERIS_TYPE": 0, "CLASSIFICATION_TYPE": "U", "NORAD_CAT_ID": 66506, "ELEMENT_SET_NO": 999, "REV_AT_EPOCH": 395, "BSTAR": -0.0010006849, "MEAN_MOTION_DOT": -0.00151944, "MEAN_MOTION_DDOT": 0}, "tle": {"line1": "1 66506U 25263X   25336.25003472 -.00151944  00000+0 -10007-2 0  9998", "line2": "2 66506  42.9985 187.1271 0001650 274.0228 173.9134 15.75111990  3950"}}, "geometry": {"type": "Point", "coordinates": [-18.011774999667153, 20.117941930071847]}}, {"type": "Feature", "properties": {"norad_id": 66507, "name": "STARLINK-34767", "group": "last-30-days", "lat": 17.675246551427005, "lon": -14.871527260575185, "alt_km": 342.5249682156482, "timestamp": "2025-12-02T13:52:16.065413+00:00", "meta": {"OBJECT_NAME": "STARLINK-34767", "OBJECT_ID": "2025-263Y", "EPOCH": "2025-12-02T06:00:02.999808", "MEAN_MOTION": 15.75150985, "ECCENTRICITY": 0.00015849, "INCLINATION": 42.9986, "RA_OF_ASC_NODE": 187.1169, "ARG_OF_PERICENTER": 275.5955, "MEAN_ANOMALY": 176.193, "EPHEMERIS_TYPE": 0, "CLASSIFICATION_TYPE": "U", "NORAD_CAT_ID": 66507, "ELEMENT_SET_NO": 999, "REV_AT_EPOCH": 395, "BSTAR": -0.0018057287, "MEAN_MOTION_DOT": -0.00270482, "MEAN_MOTION_DDOT": 0}, "tle": {"line1": "1 66507U 25263Y   25336.25003472 -.00270482  00000+0 -18057-2 0  9991", "line2": "2 66507  42.9986 187.1169 0001584 275.5955 176.1930 15.75150985  3953"}}, "geometry": {"type": "Point", "coordinates": [-14.871527260575185, 17.675246551427005]}}, {"type": "Feature", "properties": {"norad_id": 66508, "name": "STARLINK-35608", "group": "last-30-days", "lat": 13.940123814039984, "lon": -10.337001451193062, "alt_km": 342.99625779775397, "timestamp": "2025-12-02T13:52:16.065423+00:00", "meta": {"OBJECT_NAME": "STARLINK-35608", "OBJECT_ID": "2025-263Z", "EPOCH": "2025-12-02T06:00:02.999808", "MEAN_MOTION": 15.75145342, "ECCENTRICITY": 0.00017146, "INCLINATION": 42.9986, "RA_OF_ASC_NODE": 187.1026, "ARG_OF_PERICENTER": 271.6568, "MEAN_ANOMALY": 185.8903, "EPHEMERIS_TYPE": 0, "CLASSIFICATION_TYPE": "U", "NORAD_CAT_ID": 66508, "ELEMENT_SET_NO": 999, "REV_AT_EPOCH": 395, "BSTAR": -0.0018033402, "MEAN_MOTION_DOT": -0.00270078, "MEAN_MOTION_DDOT": 0}, "tle": {"line1": "1 66508U 25263Z   25336.25003472 -.00270078  00000+0 -18033-2 0  9997", "line2": "2 66508  42.9986 187.1026 0001714 271.6568 185.8903 15.75145342  3956"}}, "geometry": {"type": "Point", "coordinates": [-10.337001451193062, 13.940123814039984]}}, {"type": "Feature", "properties": {"norad_id": 66509, "name": "STARLINK-35598", "group": "last-30-days", "lat": 8.833109796842376, "lon": -4.508847092721608, "alt_km": 343.56530368778294, "timestamp": "2025-12-02T13:52:16.065434+00:00", "meta": {"OBJECT_NAME": "STARLINK-35598", "OBJECT_ID": "2025-263AA", "EPOCH": "2025-12-02T06:00:02.999808", "MEAN_MOTION": 15.7514501, "ECCENTRICITY": 0.00014683, "INCLINATION": 42.9985, "RA_OF_ASC_NODE": 187.0817, "ARG_OF_PERICENTER": 271.334, "MEAN_ANOMALY": 193.8853, "EPHEMERIS_TYPE": 0, "CLASSIFICATION_TYPE": "U", "NORAD_CAT_ID": 66509, "ELEMENT_SET_NO": 999, "REV_AT_EPOCH": 395, "BSTAR": -0.001816607, "MEAN_MOTION_DOT": -0.00271983, "MEAN_MOTION_DDOT": 0}, "tle": {"line1": "1 66509U 25263AA  25336.25003472 -.00271983  00000+0 -18166-2 0  9991", "line2": "2 66509  42.9985 187.0817 0001468 271.3340 193.8853 15.75145010  3959"}}, "geometry": {"type": "Point", "coordinates": [-4.508847092721608, 8.833109796842376]}}, {"type": "Feature", "properties": {"norad_id": 66510, "name": "STARLINK-35600", "group": "last-30-days", "lat": 12.67373222691052, "lon": -8.858920990739048, "alt_km": 343.00462944130413, "timestamp": "2025-12-02T13:52:16.065460+00:00", "meta": {"OBJECT_NAME": "STARLINK-35600", "OBJECT_ID": "2025-263AB", "EPOCH": "2025-12-02T06:00:02.999808", "MEAN_MOTION": 15.75147956, "ECCENTRICITY": 0.00017159, "INCLINATION": 42.9987, "RA_OF_ASC_NODE": 187.0968, "ARG_OF_PERICENTER": 266.3173, "MEAN_ANOMALY": 193.1394, "EPHEMERIS_TYPE": 0, "CLASSIFICATION_TYPE": "U", "NORAD_CAT_ID": 66510, "ELEMENT_SET_NO": 999, "REV_AT_EPOCH": 395, "BSTAR": -0.0016731659, "MEAN_MOTION_DOT": -0.00251199, "MEAN_MOTION_DDOT": 0}, "tle": {"line1": "1 66510U 25263AB  25336.25003472 -.00251199  00000+0 -16732-2 0  9997", "line2": "2 66510  42.9987 187.0968 0001715 266.3173 193.1394 15.75147956  3957"}}, "geometry": {"type": "Point", "coordinates": [-8.858920990739048, 12.67373222691052]}}, {"type": "Feature", "properties": {"norad_id": 66511, "name": "STARLINK-35444", "group": "last-30-days", "lat": 10.12140858772997, "lon": -5.948212917723587, "alt_km": 343.36318526477226, "timestamp": "2025-12-02T13:52:16.065474+00:00", "meta": {"OBJECT_NAME": "STARLINK-35444", "OBJECT_ID": "2025-263AC", "EPOCH": "2025-12-02T06:00:02.999808", "MEAN_MOTION": 15.75145548, "ECCENTRICITY": 0.00015769, "INCLINATION": 42.9984, "RA_OF_ASC_NODE": 187.087, "ARG_OF_PERICENTER": 267.0393, "MEAN_ANOMALY": 196.2634, "EPHEMERIS_TYPE": 0, "CLASSIFICATION_TYPE": "U", "NORAD_CAT_ID": 66511, "ELEMENT_SET_NO": 999, "REV_AT_EPOCH": 395, "BSTAR": -0.0018620483, "MEAN_MOTION_DOT": -0.00278573, "MEAN_MOTION_DDOT": 0}, "tle": {"line1": "1 66511U 25263AC  25336.25003472 -.00278573  00000+0 -18620-2 0  9991", "line2": "2 66511  42.9984 187.0870 0001576 267.0393 196.2634 15.75145548  3950"}}, "geometry": {"type": "Point", "coordinates": [-5.948212917723587, 10.12140858772997]}}, {"type": "Feature", "properties": {"norad_id": 66512, "name": "STARLINK-35366", "group": "last-30-days", "lat": 7.545119134491758, "lon": -3.085279528386524, "alt_km": 343.52140384056565, "timestamp": "2025-12-02T13:52:16.065489+00:00", "meta": {"OBJECT_NAME": "STARLINK-35366", "OBJECT_ID": "2025-263AD", "EPOCH": "2025-12-02T06:00:02.999808", "MEAN_MOTION": 15.75153014, "ECCENTRICITY": 0.00017368, "INCLINATION": 42.9986, "RA_OF_ASC_NODE": 187.0771, "ARG_OF_PERICENTER": 260.0353, "MEAN_ANOMALY": 207.0928, "EPHEMERIS_TYPE": 0, "CLASSIFICATION_TYPE": "U", "NORAD_CAT_ID": 66512, "ELEMENT_SET_NO": 999, "REV_AT_EPOCH": 395, "BSTAR": -0.0018648709, "MEAN_MOTION_DOT": -0.00279078, "MEAN_MOTION_DDOT": 0}, "tle": {"line1": "1 66512U 25263AD  25336.25003472 -.00279078  00000+0 -18649-2 0  9994", "line2": "2 66512  42.9986 187.0771 0001736 260.0353 207.0928 15.75153014  3954"}}, "geometry": {"type": "Point", "coordinates": [-3.085279528386524, 7.545119134491758]}}, {"type": "Feature", "properties": {"norad_id": 66513, "name": "STARLINK-35692", "group": "last-30-days", "lat": 11.400689823042395, "lon": -7.396422950186655, "alt_km": 343.52504067077007, "timestamp": "2025-12-02T13:52:16.065500+00:00", "meta": {"OBJECT_NAME": "STARLINK-35692", "OBJECT_ID": "2025-263AE", "EPOCH": "2025-12-02T06:00:02.999808", "MEAN_MOTION": 15.75141923, "ECCENTRICITY": 0.0001676, "INCLINATION": 42.9984, "RA_OF_ASC_NODE": 187.092, "ARG_OF_PERICENTER": 284.8679, "MEAN_ANOMALY": 176.5132, "EPHEMERIS_TYPE": 0, "CLASSIFICATION_TYPE": "U", "NORAD_CAT_ID": 66513, "ELEMENT_SET_NO": 999, "REV_AT_EPOCH": 395, "BSTAR": -0.0017241839, "MEAN_MOTION_DOT": -0.00258551, "MEAN_MOTION_DDOT": 0}, "tle": {"line1": "1 66513U 25263AE  25336.25003472 -.00258551  00000+0 -17242-2 0  9996", "line2": "2 66513  42.9984 187.0920 0001676 284.8679 176.5132 15.75141923  3950"}}, "geometry": {"type": "Point", "coordinates": [-7.396422950186655, 11.400689823042395]}}, {"type": "Feature", "properties": {"norad_id": 66514, "name": "SENTINEL-6B", "group": "last-30-days", "lat": -53.629732063659645, "lon": 146.50860666528325, "alt_km": 1316.3040798092488, "timestamp": "2025-12-02T13:52:16.065510+00:00", "meta": {"OBJECT_NAME": "SENTINEL-6B", "OBJECT_ID": "2025-264A", "EPOCH": "2025-12-02T01:07:30.457056", "MEAN_MOTION": 12.85877319, "ECCENTRICITY": 0.00115275, "INCLINATION": 66.0388, "RA_OF_ASC_NODE": 184.7629, "ARG_OF_PERICENTER": 268.8495, "MEAN_ANOMALY": 91.1202, "EPHEMERIS_TYPE": 0, "CLASSIFICATION_TYPE": "U", "NORAD_CAT_ID": 66514, "ELEMENT_SET_NO": 999, "REV_AT_EPOCH": 191, "BSTAR": 0.0003263787, "MEAN_MOTION_DOT": 1.9e-07, "MEAN_MOTION_DDOT": 0}, "tle": {"line1": "1 66514U 25264A   25336.04688029  .00000019  00000+0  32638-3 0  9991", "line2": "2 66514  66.0388 184.7629 0011527 268.8495  91.1202 12.85877319  1917"}}, "geometry": {"type": "Point", "coordinates": [146.50860666528325, -53.629732063659645]}}, {"type": "Feature", "properties": {"norad_id": 66516, "name": "STARLINK-35924", "group": "last-30-days", "lat": -4.023851915591952, "lon": -61.243848563067026, "alt_km": 344.6218462978168, "timestamp": "2025-12-02T13:52:16.065520+00:00", "meta": {"OBJECT_NAME": "STARLINK-35924", "OBJECT_ID": "2025-265A", "EPOCH": "2025-12-02T06:00:02.999808", "MEAN_MOTION": 15.75030012, "ECCENTRICITY": 0.00014984, "INCLINATION": 42.9992, "RA_OF_ASC_NODE": 116.4166, "ARG_OF_PERICENTER": 263.1746, "MEAN_ANOMALY": 220.9901, "EPHEMERIS_TYPE": 0, "CLASSIFICATION_TYPE": "U", "NORAD_CAT_ID": 66516, "ELEMENT_SET_NO": 999, "REV_AT_EPOCH": 328, "BSTAR": 7.8634593e-05, "MEAN_MOTION_DOT": 0.00011613, "MEAN_MOTION_DDOT": 0}, "tle": {"line1": "1 66516U 25265A   25336.25003472  .00011613  00000+0  78635-4 0  9990", "line2": "2 66516  42.9992 116.4166 0001498 263.1746 220.9901 15.75030012  3287"}}, "geometry": {"type": "Point", "coordinates": [-61.243848563067026, -4.023851915591952]}}]}